{"type": "FeatureCollection", "features": [{"type": "Feature", "properties": {"norad_id": 22675, "name": "COSMOS 2251", "group": "cosmos-2251-debris", "lat": -15.808317667207797, "lon": -55.01664660594913, "alt_km": 773.7411879362835, "timestamp": "2025-12-16T03:53:27.447558+00:00", "meta": {"OBJECT_NAME": "COSMOS 2251", "OBJECT_ID": "1993-036A", "EPOCH": "2025-12-15T07:51:51.958080", "MEAN_MOTION": 14.33205569, "ECCENTRICITY": 0.00240754, "INCLINATION": 74.0398, "RA_OF_ASC_NODE": 311.1548, "ARG_OF_PERICENTER": 32.6829, "MEAN_ANOMALY": 327.5806, "EPHEMERIS_TYPE": 0, "CLASSIFICATION_TYPE": "U", "NORAD_CAT_ID": 22675, "ELEMENT_SET_NO": 999, "REV_AT_EPOCH": 69810, "BSTAR": 5.5458799e-05, "MEAN_MOTION_DOT": 1.27e-06, "MEAN_MOTION_DDOT": 0}, "tle": {"line1": "1 22675U 93036A   25349.32768470  .00000127  00000+0  55459-4 0  9994", "line2": "2 22675  74.0398 311.1548 0024075  32.6829 327.5806 14.33205569698109"}}, "geometry": {"type": "Point", "coordinates": [-55.01664660594913, -15.808317667207797]}}, {"type": "Feature", "properties": {"norad_id": 33757, "name": "COSMOS 2251 DEB", "group": "cosmos-2251-debris", "lat": 14.416052796403472, "lon": -38.41819411088141, "alt_km": 775.8965563467227, "timestamp": "2025-12-16T03:53:27.447581+00:00", "meta": {"OBJECT_NAME": "COSMOS 2251 DEB", "OBJECT_ID": "1993-036E", "EPOCH": "2025-12-15T08:24:36.559296", "MEAN_MOTION": 14.32581669, "ECCENTRICITY": 0.0015356, "INCLINATION": 74.037, "RA_OF_ASC_NODE": 318.8435, "ARG_OF_PERICENTER": 331.6886, "MEAN_ANOMALY": 178.8054, "EPHEMERIS_TYPE": 0, "CLASSIFICATION_TYPE": "U", "NORAD_CAT_ID": 33757, "ELEMENT_SET_NO": 999, "REV_AT_EPOCH": 88033, "BSTAR": 4.9980369e-05, "MEAN_MOTION_DOT": 1.1e-06, "MEAN_MOTION_DDOT": 0}, "tle": {"line1": "1 33757U 93036E   25349.35042314  .00000110  00000+0  49980-4 0  9996", "line2": "2 33757  74.0370 318.8435 0015356 331.6886 178.8054 14.32581669880335"}}, "geometry": {"type": "Point", "coordinates": [-38.41819411088141, 14.416052796403472]}}, {"type": "Feature", "properties": {"norad_id": 33758, "name": "COSMOS 2251 DEB", "group": "cosmos-2251-debris", "lat": -13.97322364091725, "lon": 32.67098484396776, "alt_km": 722.6001613810477, "timestamp": "2025-12-16T03:53:27.447596+00:00", "meta": {"OBJECT_NAME": "COSMOS 2251 DEB", "OBJECT_ID": "1993-036F", "EPOCH": "2025-12-15T07:41:51.154080", "MEAN_MOTION": 14.51612054, "ECCENTRICITY": 0.00173241, "INCLINATION": 74.0277, "RA_OF_ASC_NODE": 210.1684, "ARG_OF_PERICENTER": 276.8159, "MEAN_ANOMALY": 202.6482, "EPHEMERIS_TYPE": 0, "CLASSIFICATION_TYPE": "U", "NORAD_CAT_ID": 33758, "ELEMENT_SET_NO": 999, "REV_AT_EPOCH": 88342, "BSTAR": 0.0005708623, "MEAN_MOTION_DOT": 2.264e-05, "MEAN_MOTION_DDOT": 0}, "tle": {"line1": "1 33758U 93036F   25349.32073095  .00002264  00000+0  57086-3 0  9991", "line2": "2 33758  74.0277 210.1684 0017324 276.8159 202.6482 14.51612054883420"}}, "geometry": {"type": "Point", "coordinates": [32.67098484396776, -13.97322364091725]}}, {"type": "Feature", "properties": {"norad_id": 33760, "name": "COSMOS 2251 DEB", "group": "cosmos-2251-debris", "lat": -56.323619758629576, "lon": -110.27293465668939, "alt_km": 775.2189071131124, "timestamp": "2025-12-16T03:53:27.447623+00:00", "meta": {"OBJECT_NAME": "COSMOS 2251 DEB", "OBJECT_ID": "1993-036H", "EPOCH": "2025-12-15T06:59:37.074048", "MEAN_MOTION": 14.35674516, "ECCENTRICITY": 0.00199777, "INCLINATION": 74.0322, "RA_OF_ASC_NODE": 276.7733, "ARG_OF_PERICENTER": 14.4515, "MEAN_ANOMALY": 107.4197, "EPHEMERIS_TYPE": 0, "CLASSIFICATION_TYPE": "U", "NORAD_CAT_ID": 33760, "ELEMENT_SET_NO": 999, "REV_AT_EPOCH": 88161, "BSTAR": 0.00011712122, "MEAN_MOTION_DOT": 3.13e-06, "MEAN_MOTION_DDOT": 0}, "tle": {"line1": "1 33760U 93036H   25349.29140132  .00000313  00000+0  11712-3 0  9996", "line2": "2 33760  74.0322 276.7733 0019977  14.4515 107.4197 14.35674516881612"}}, "geometry": {"type": "Point", "coordinates": [-110.27293465668939, -56.323619758629576]}}, {"type": "Feature", "properties": {"norad_id": 33761, "name": "COSMOS 2251 DEB", "group": "cosmos-2251-debris", "lat": -44.106021285836626, "lon": -130.29347722826103, "alt_km": 740.2542047862244, "timestamp": "2025-12-16T03:53:27.447636+00:00", "meta": {"OBJECT_NAME": "COSMOS 2251 DEB", "OBJECT_ID": "1993-036J", "EPOCH": "2025-12-14T23:52:08.027040", "MEAN_MOTION": 14.42552885, "ECCENTRICITY": 0.00231282, "INCLINATION": 74.0368, "RA_OF_ASC_NODE": 247.9794, "ARG_OF_PERICENTER": 327.893, "MEAN_ANOMALY": 44.8172, "EPHEMERIS_TYPE": 0, "CLASSIFICATION_TYPE": "U", "NORAD_CAT_ID": 33761, "ELEMENT_SET_NO": 999, "REV_AT_EPOCH": 88267, "BSTAR": 0.00038525537, "MEAN_MOTION_DOT": 1.256e-05, "MEAN_MOTION_DDOT": 0}, "tle": {"line1": "1 33761U 93036J   25348.99453735  .00001256  00000+0  38526-3 0  9998", "line2": "2 33761  74.0368 247.9794 0023128 327.8930  44.8172 14.42552885882671"}}, "geometry": {"type": "Point", "coordinates": [-130.29347722826103, -44.106021285836626]}}, {"type": "Feature", "properties": {"norad_id": 33762, "name": "COSMOS 2251 DEB", "group": "cosmos-2251-debris", "lat": -32.09719734338094, "lon": 134.10935943267035, "alt_km": 794.6737765856924, "timestamp": "2025-12-16T03:53:27.447648+00:00", "meta": {"OBJECT_NAME": "COSMOS 2251 DEB", "OBJECT_ID": "1993-036K", "EPOCH": "2025-12-15T07:20:11.827680", "MEAN_MOTION": 14.33664609, "ECCENTRICITY": 0.00151072, "INCLINATION": 74.0418, "RA_OF_ASC_NODE": 305.3352, "ARG_OF_PERICENTER": 6.1646, "MEAN_ANOMALY": 108.9394, "EPHEMERIS_TYPE": 0, "CLASSIFICATION_TYPE": "U", "NORAD_CAT_ID": 33762, "ELEMENT_SET_NO": 999, "REV_AT_EPOCH": 88084, "BSTAR": 5.9728517e-05, "MEAN_MOTION_DOT": 1.4e-06, "MEAN_MOTION_DDOT": 0}, "tle": {"line1": "1 33762U 93036K   25349.30569245  .00000140  00000+0  59729-4 0  9999", "line2": "2 33762  74.0418 305.3352 0015107   6.1646 108.9394 14.33664609880849"}}, "geometry": {"type": "Point", "coordinates": [134.10935943267035, -32.09719734338094]}}, {"type": "Feature", "properties": {"norad_id": 33764, "name": "COSMOS 2251 DEB", "group": "cosmos-2251-debris", "lat": 60.79995592347346, "lon": -62.84683507403771, "alt_km": 770.350025422189, "timestamp": "2025-12-16T03:53:27.447660+00:00", "meta": {"OBJECT_NAME": "COSMOS 2251 DEB", "OBJECT_ID": "1993-036M", "EPOCH": "2025-12-15T04:33:56.373984", "MEAN_MOTION": 14.39515608, "ECCENTRICITY": 0.00238345, "INCLINATION": 74.0336, "RA_OF_ASC_NODE": 268.1322, "ARG_OF_PERICENTER": 233.4609, "MEAN_ANOMALY": 197.3364, "EPHEMERIS_TYPE": 0, "CLASSIFICATION_TYPE": "U", "NORAD_CAT_ID": 33764, "ELEMENT_SET_NO": 999, "REV_AT_EPOCH": 88192, "BSTAR": 0.00033450853, "MEAN_MOTION_DOT": 1.02e-05, "MEAN_MOTION_DDOT": 0}, "tle": {"line1": "1 33764U 93036M   25349.19023581  .00001020  00000+0  33451-3 0  9997", "line2": "2 33764  74.0336 268.1322 0023834 233.4609 197.3364 14.39515608881922"}}, "geometry": {"type": "Point", "coordinates": [-62.84683507403771, 60.79995592347346]}}, {"type": "Feature", "properties": {"norad_id": 33765, "name": "COSMOS 2251 DEB", "group": "cosmos-2251-debris", "lat": 41.37979332797849, "lon": -179.3352778211709, "alt_km": 569.1903001917153, "timestamp": "2025-12-16T03:53:27.447671+00:00", "meta": {"OBJECT_NAME": "COSMOS 2251 DEB", "OBJECT_ID": "1993-036N", "EPOCH": "2025-12-15T06:13:53.818752", "MEAN_MOTION": 15.10155881, "ECCENTRICITY": 0.00650613, "INCLINATION": 74.008, "RA_OF_ASC_NODE": 167.8954, "ARG_OF_PERICENTER": 259.5682, "MEAN_ANOMALY": 279.24, "EPHEMERIS_TYPE": 0, "CLASSIFICATION_TYPE": "U", "NORAD_CAT_ID": 33765, "ELEMENT_SET_NO": 999, "REV_AT_EPOCH": 89656, "BSTAR": 0.0012118967, "MEAN_MOTION_DOT": 0.00020814, "MEAN_MOTION_DDOT": 0}, "tle": {"line1": "1 33765U 93036N   25349.25965068  .00020814  00000+0  12119-2 0  9999", "line2": "2 33765  74.0080 167.8954 0065061 259.5682 279.2400 15.10155881896563"}}, "geometry": {"type": "Point", "coordinates": [-179.3352778211709, 41.37979332797849]}}, {"type": "Feature", "properties": {"norad_id": 33766, "name": "COSMOS 2251 DEB", "group": "cosmos-2251-debris", "lat": 48.38116526108593, "lon": 147.36809255170408, "alt_km": 762.1785479283517, "timestamp": "2025-12-16T03:53:27.447681+00:00", "meta": {"OBJECT_NAME": "COSMOS 2251 DEB", "OBJECT_ID": "1993-036P", "EPOCH": "2025-12-15T09:15:02.124864", "MEAN_MOTION": 14.34942842, "ECCENTRICITY": 0.00642844, "INCLINATION": 74.1856, "RA_OF_ASC_NODE": 130.1744, "ARG_OF_PERICENTER": 332.8206, "MEAN_ANOMALY": 26.9587, "EPHEMERIS_TYPE": 0, "CLASSIFICATION_TYPE": "U", "NORAD_CAT_ID": 33766, "ELEMENT_SET_NO": 999, "REV_AT_EPOCH": 87783, "BSTAR": 0.00044131472, "MEAN_MOTION_DOT": 1.26e-05, "MEAN_MOTION_DDOT": 0}, "tle": {"line1": "1 33766U 93036P   25349.38544126  .00001260  00000+0  44131-3 0  9996", "line2": "2 33766  74.1856 130.1744 0064284 332.8206  26.9587 14.34942842877837"}}, "geometry": {"type": "Point", "coordinates": [147.36809255170408, 48.38116526108593]}}, {"type": "Feature", "properties": {"norad_id": 33768, "name": "COSMOS 2251 DEB", "group": "cosmos-2251-debris", "lat": 55.83287283339344, "lon": 9.458134817523943, "alt_km": 1116.2173337308768, "timestamp": "2025-12-16T03:53:27.447693+00:00", "meta": {"OBJECT_NAME": "COSMOS 2251 DEB", "OBJECT_ID": "1993-036R", "EPOCH": "2025-12-15T08:43:25.618944", "MEAN_MOTION": 13.5845712, "ECCENTRICITY": 0.03664608, "INCLINATION": 74.0676, "RA_OF_ASC_NODE": 215.6335, "ARG_OF_PERICENTER": 12.8022, "MEAN_ANOMALY": 159.5705, "EPHEMERIS_TYPE": 0, "CLASSIFICATION_TYPE": "U", "NORAD_CAT_ID": 33768, "ELEMENT_SET_NO": 999, "REV_AT_EPOCH": 83331, "BSTAR": 0.00034626952, "MEAN_MOTION_DOT": 3.7e-06, "MEAN_MOTION_DDOT": 0}, "tle": {"line1": "1 33768U 93036R   25349.36349096  .00000370  00000+0  34627-3 0  9995", "line2": "2 33768  74.0676 215.6335 0366460  12.8022 159.5705 13.58457120833310"}}, "geometry": {"type": "Point", "coordinates": [9.458134817523943, 55.83287283339344]}}]}